{"type": "FeatureCollection", "features": [ {"type": "Feature", "properties": {"norad_id": 66479, "name": "STARLINK-35581", "group": "last-30-days", "lat": -21.25574555078558, "lon": 93.13235538358644, "alt_km": 406.63360359601484, "timestamp": "2025-12-04T17:48:38.963144+00:00", "meta": {"OBJECT_NAME": "STARLINK-35581", "OBJECT_ID": "2025-262Z", "EPOCH": "2025-12-04T08:00:01.999872", "MEAN_MOTION": 15.55859792, "ECCENTRICITY": 0.00012294, "INCLINATION": 42.9996, "RA_OF_ASC_NODE": 120.2131, "ARG_OF_PERICENTER": 266.101, "MEAN_ANOMALY": 290.9846, "EPHEMERIS_TYPE": 0, "CLASSIFICATION_TYPE": "U", "NORAD_CAT_ID": 66479, "ELEMENT_SET_NO": 999, "REV_AT_EPOCH": 428, "BSTAR": -0.033970335, "MEAN_MOTION_DOT": -0.02142432, "MEAN_MOTION_DDOT": 0}, "tle": {"line1": "1 66479U 25262Z   25338.33335648 -.02142432  00000+0 -33970-1 0  9997", "line2": "2 66479  42.9996 120.2131 0001229 266.1010 290.9846 15.55859792  4281"}}, "geometry": {"type": "Point", "coordinates": [93.13235538358644, -21.25574555078558]}}, {"type": "Feature", "properties": {"norad_id": 66480, "name": "STARLINK-35670", "group": "last-30-days", "lat": -17.630447345073275, "lon": 97.85049449743411, "alt_km": 406.4428579128462, "timestamp": "2025-12-04T17:48:38.963156+00:00", "meta": {"OBJECT_NAME": "STARLINK-35670", "OBJECT_ID": "2025-262AA", "EPOCH": "2025-12-04T08:00:01.999872", "MEAN_MOTION": 15.55858763, "ECCENTRICITY": 0.0001215, "INCLINATION": 42.9996, "RA_OF_ASC_NODE": 120.1985, "ARG_OF_PERICENTER": 263.9008, "MEAN_ANOMALY": 298.9362, "EPHEMERIS_TYPE": 0, "CLASSIFICATION_TYPE": "U", "NORAD_CAT_ID": 66480, "ELEMENT_SET_NO": 999, "REV_AT_EPOCH": 428, "BSTAR": -0.033921813, "MEAN_MOTION_DOT": -0.02139634, "MEAN_MOTION_DDOT": 0}, "tle": {"line1": "1 66480U 25262AA  25338.33335648 -.02139634  00000+0 -33922-1 0  9996", "line2": "2 66480  42.9996 120.1985 0001215 263.9008 298.9362 15.55858763  4284"}}, "geometry": {"type": "Point", "coordinates": [97.85049449743411, -17.630447345073275]}}, {"type": "Feature", "properties": {"norad_id": 66481, "name": "STARLINK-35698", "group": "last-30-days", "lat": -16.396902652753255, "lon": 99.37794064733072, "alt_km": 406.3242637510566, "timestamp": "2025-12-04T17:48:38.963168+00:00", "meta": {"OBJECT_NAME": "STARLINK-35698", "OBJECT_ID": "2025-262AB", "EPOCH": "2025-12-04T08:00:01.999872", "MEAN_MOTION": 15.55859009, "ECCENTRICITY": 0.00012477, "INCLINATION": 42.9994, "RA_OF_ASC_NODE": 120.1932, "ARG_OF_PERICENTER": 265.351, "MEAN_ANOMALY": 299.4032, "EPHEMERIS_TYPE": 0, "CLASSIFICATION_TYPE": "U", "NORAD_CAT_ID": 66481, "ELEMENT_SET_NO": 999, "REV_AT_EPOCH": 428, "BSTAR": -0.033951191, "MEAN_MOTION_DOT": -0.02141318, "MEAN_MOTION_DDOT": 0}, "tle": {"line1": "1 66481U 25262AB  25338.33335648 -.02141318  00000+0 -33951-1 0  9991", "line2": "2 66481  42.9994 120.1932 0001247 265.3510 299.4032 15.55859009  4288"}}, "geometry": {"type": "Point", "coordinates": [99.37794064733072, -16.396902652753255]}}, {"type": "Feature", "properties": {"norad_id": 66482, "name": "STARLINK-35648", "group": "last-30-days", "lat": -15.152351680403491, "lon": 100.886771740581, "alt_km": 406.19733582047684, "timestamp": "2025-12-04T17:48:38.963179+00:00", "meta": {"OBJECT_NAME": "STARLINK-35648", "OBJECT_ID": "2025-262AC", "EPOCH": "2025-12-04T08:00:01.999872", "MEAN_MOTION": 15.5585865, "ECCENTRICITY": 0.00012555, "INCLINATION": 42.9992, "RA_OF_ASC_NODE": 120.1886, "ARG_OF_PERICENTER": 267.1203, "MEAN_ANOMALY": 299.5507, "EPHEMERIS_TYPE": 0, "CLASSIFICATION_TYPE": "U", "NORAD_CAT_ID": 66482, "ELEMENT_SET_NO": 999, "REV_AT_EPOCH": 413, "BSTAR": -0.033942164, "MEAN_MOTION_DOT": -0.02140793, "MEAN_MOTION_DDOT": 0}, "tle": {"line1": "1 66482U 25262AC  25338.33335648 -.02140793  00000+0 -33942-1 0  9998", "line2": "2 66482  42.9992 120.1886 0001255 267.1203 299.5507 15.55858650  4136"}}, "geometry": {"type": "Point", "coordinates": [100.886771740581, -15.152351680403491]}}, {"type": "Feature", "properties": {"norad_id": 66483, "name": "STARLINK-35654", "group": "last-30-days", "lat": -13.896951760717672, "lon": 102.37793071987714, "alt_km": 406.2134370358717, "timestamp": "2025-12-04T17:48:38.963188+00:00", "meta": {"OBJECT_NAME": "STARLINK-35654", "OBJECT_ID": "2025-262AD", "EPOCH": "2025-12-04T08:00:01.999872", "MEAN_MOTION": 15.55857345, "ECCENTRICITY": 0.00011731, "INCLINATION": 42.9994, "RA_OF_ASC_NODE": 120.1828, "ARG_OF_PERICENTER": 262.4641, "MEAN_ANOMALY": 306.1264, "EPHEMERIS_TYPE": 0, "CLASSIFICATION_TYPE": "U", "NORAD_CAT_ID": 66483, "ELEMENT_SET_NO": 999, "REV_AT_EPOCH": 428, "BSTAR": -0.033923225, "MEAN_MOTION_DOT": -0.02139584, "MEAN_MOTION_DDOT": 0}, "tle": {"line1": "1 66483U 25262AD  25338.33335648 -.02139584  00000+0 -33923-1 0  9994", "line2": "2 66483  42.9994 120.1828 0001173 262.4641 306.1264 15.55857345  4289"}}, "geometry": {"type": "Point", "coordinates": [102.37793071987714, -13.896951760717672]}}, {"type": "Feature", "properties": {"norad_id": 66484, "name": "STARLINK-35371", "group": "last-30-days", "lat": -12.63338685467721, "lon": 103.85421463281195, "alt_km": 406.0943839212696, "timestamp": "2025-12-04T17:48:38.963198+00:00", "meta": {"OBJECT_NAME": "STARLINK-35371", "OBJECT_ID": "2025-262AE", "EPOCH": "2025-12-04T08:00:01.999872", "MEAN_MOTION": 15.55859316, "ECCENTRICITY": 0.00011446, "INCLINATION": 42.9995, "RA_OF_ASC_NODE": 120.1794, "ARG_OF_PERICENTER": 263.5014, "MEAN_ANOMALY": 307.0036, "EPHEMERIS_TYPE": 0, "CLASSIFICATION_TYPE": "U", "NORAD_CAT_ID": 66484, "ELEMENT_SET_NO": 999, "REV_AT_EPOCH": 428, "BSTAR": -0.033929932, "MEAN_MOTION_DOT": -0.02140081, "MEAN_MOTION_DDOT": 0}, "tle": {"line1": "1 66484U 25262AE  25338.33335648 -.02140081  00000+0 -33930-1 0  9997", "line2": "2 66484  42.9995 120.1794 0001144 263.5014 307.0036 15.55859316  4284"}}, "geometry": {"type": "Point", "coordinates": [103.85421463281195, -12.63338685467721]}}, {"type": "Feature", "properties": {"norad_id": 66485, "name": "STARLINK-34774", "group": "last-30-days", "lat": 32.92012909886552, "lon": -51.829976505862454, "alt_km": 365.95713201389935, "timestamp": "2025-12-04T17:48:38.963208+00:00", "meta": {"OBJECT_NAME": "STARLINK-34774", "OBJECT_ID": "2025-263A", "EPOCH": "2025-12-04T08:00:01.999872", "MEAN_MOTION": 15.67830112, "ECCENTRICITY": 0.0001706, "INCLINATION": 42.9992, "RA_OF_ASC_NODE": 174.6324, "ARG_OF_PERICENTER": 266.0273, "MEAN_ANOMALY": 72.4563, "EPHEMERIS_TYPE": 0, "CLASSIFICATION_TYPE": "U", "NORAD_CAT_ID": 66485, "ELEMENT_SET_NO": 999, "REV_AT_EPOCH": 428, "BSTAR": -0.019747044, "MEAN_MOTION_DOT": -0.01973634, "MEAN_MOTION_DDOT": 0}, "tle": {"line1": "1 66485U 25263A   25338.33335648 -.01973634  00000+0 -19747-1 0  9996", "line2": "2 66485  42.9992 174.6324 0001706 266.0273  72.4563 15.67830112  4288"}}, "geometry": {"type": "Point", "coordinates": [-51.829976505862454, 32.92012909886552]}}, {"type": "Feature", "properties": {"norad_id": 66486, "name": "STARLINK-34844", "group": "last-30-days", "lat": 31.964525346982658, "lon": -49.86555545678906, "alt_km": 366.03472203486035, "timestamp": "2025-12-04T17:48:38.963220+00:00", "meta": {"OBJECT_NAME": "STARLINK-34844", "OBJECT_ID": "2025-263B", "EPOCH": "2025-12-04T08:00:01.999872", "MEAN_MOTION": 15.67844649, "ECCENTRICITY": 0.00016831, "INCLINATION": 42.9994, "RA_OF_ASC_NODE": 174.6266, "ARG_OF_PERICENTER": 264.0721, "MEAN_ANOMALY": 76.3178, "EPHEMERIS_TYPE": 0, "CLASSIFICATION_TYPE": "U", "NORAD_CAT_ID": 66486, "ELEMENT_SET_NO": 999, "REV_AT_EPOCH": 423, "BSTAR": -0.019906092, "MEAN_MOTION_DOT": -0.01988661, "MEAN_MOTION_DDOT": 0}, "tle": {"line1": "1 66486U 25263B   25338.33335648 -.01988661  00000+0 -19906-1 0  9990", "line2": "2 66486  42.9994 174.6266 0001683 264.0721  76.3178 15.67844649  4236"}}, "geometry": {"type": "Point", "coordinates": [-49.86555545678906, 31.964525346982658]}}, {"type": "Feature", "properties": {"norad_id": 66487, "name": "STARLINK-34733", "group": "last-30-days", "lat": 30.978299901766082, "lon": -47.939480078854736, "alt_km": 366.19763464819516, "timestamp": "2025-12-04T17:48:38.963234+00:00", "meta": {"OBJECT_NAME": "STARLINK-34733", "OBJECT_ID": "2025-263C", "EPOCH": "2025-12-04T08:00:01.999872", "MEAN_MOTION": 15.67845381, "ECCENTRICITY": 0.00016968, "INCLINATION": 42.9993, "RA_OF_ASC_NODE": 174.6226, "ARG_OF_PERICENTER": 265.643, "MEAN_ANOMALY": 76.663, "EPHEMERIS_TYPE": 0, "CLASSIFICATION_TYPE": "U", "NORAD_CAT_ID": 66487, "ELEMENT_SET_NO": 999, "REV_AT_EPOCH": 428, "BSTAR": -0.019909741, "MEAN_MOTION_DOT": -0.01989046, "MEAN_MOTION_DDOT": 0}, "tle": {"line1": "1 66487U 25263C   25338.33335648 -.01989046  00000+0 -19910-1 0  9994", "line2": "2 66487  42.9993 174.6226 0001696 265.6430  76.6630 15.67845381  4285"}}, "geometry": {"type": "Point", "coordinates": [-47.939480078854736, 30.978299901766082]}}, {"type": "Feature", "properties": {"norad_id": 66488, "name": "STARLINK-35515", "group": "last-30-days", "lat": 29.963732707980288, "lon": -46.05392079614938, "alt_km": 366.3528306479884, "timestamp": "2025-12-04T17:48:38.963247+00:00", "meta": {"OBJECT_NAME": "STARLINK-35515", "OBJECT_ID": "2025-263D", "EPOCH": "2025-12-04T08:00:01.999872", "MEAN_MOTION": 15.67843824, "ECCENTRICITY": 0.00016631, "INCLINATION": 42.9993, "RA_OF_ASC_NODE": 174.6175, "ARG_OF_PERICENTER": 267.7786, "MEAN_ANOMALY": 76.4454, "EPHEMERIS_TYPE": 0, "CLASSIFICATION_TYPE": "U", "NORAD_CAT_ID": 66488, "ELEMENT_SET_NO": 999, "REV_AT_EPOCH": 428, "BSTAR": -0.019891724, "MEAN_MOTION_DOT": -0.01987322, "MEAN_MOTION_DDOT": 0}, "tle": {"line1": "1 66488U 25263D   25338.33335648 -.01987322  00000+0 -19892-1 0  9999", "line2": "2 66488  42.9993 174.6175 0001663 267.7786  76.4454 15.67843824  4282"}}, "geometry": {"type": "Point", "coordinates": [-46.05392079614938, 29.963732707980288]}}]}